[{"OBJECT_NAME":"STARLINK-4041","OBJECT_ID":"2022-053AR","EPOCH":"2026-03-09T11:47:11.103936","MEAN_MOTION":15.08841015,"ECCENTRICITY":7.33e-5,"INCLINATION":53.2172,"RA_OF_ASC_NODE":149.8112,"ARG_OF_PERICENTER":53.5314,"MEAN_ANOMALY":306.5745,"EPHEMERIS_TYPE":0,"CLASSIFICATION_TYPE":"U","NORAD_CAT_ID":52695,"ELEMENT_SET_NO":999,"REV_AT_EPOCH":21106,"BSTAR":-2.1920007e-5,"MEAN_MOTION_DOT":-6.36e-6,"MEAN_MOTION_DDOT":0},{"OBJECT_NAME":"IRIDIUM 33 DEB","OBJECT_ID":"1997-051ACD","EPOCH":"2026-02-15T04:06:14.442336","MEAN_MOTION":15.0282309,"ECCENTRICITY":0.00183243,"INCLINATION":86.3384,"RA_OF_ASC_NODE":302.6959,"ARG_OF_PERICENTER":121.5358,"MEAN_ANOMALY":29.3036,"EPHEMERIS_TYPE":0,"CLASSIFICATION_TYPE":"U","NORAD_CAT_ID":46971,"ELEMENT_SET_NO":999,"REV_AT_EPOCH":65196,"BSTAR":0.0024316654,"MEAN_MOTION_DOT":0.00032805,"MEAN_MOTION_DDOT":0}]
